{"type":"Feature","properties":{"name":"Seremban and Nilai review area","status":"draft","source":"Approximate screenshot border extended with a Nilai coverage rectangle; not an official administrative boundary"},"geometry":{"type":"Polygon","coordinates":[[[101.95142,2.80333],[101.95234,2.76763],[101.9574,2.76763],[101.96039,2.762785],[101.96591,2.758195],[101.98707,2.752075],[101.98937,2.746465],[101.9896,2.751055],[101.99696,2.753095],[102.00018,2.747995],[102.00846,2.74417],[102.0011,2.75335],[102.02732,2.75794],[102.02893,2.75029],[102.03284,2.746465],[102.03192,2.740855],[102.02939,2.733715],[102.03054,2.72683],[102.02686,2.71663],[102.02778,2.712295],[102.02502,2.704645],[102.02456,2.69725],[102.0287,2.69215],[102.02916,2.687815],[102.01927,2.67838],[101.98546,2.69266],[101.97833,2.687815],[101.9712,2.691385],[101.96522,2.696995],[101.96131,2.690365],[101.96315,2.68348],[101.97488,2.67175],[101.98224,2.66257],[101.98845,2.66767],[101.9988,2.664355],[102.00731,2.64523],[101.99351,2.628655],[101.97373,2.64982],[101.96453,2.657725],[101.95004,2.658235],[101.94268,2.66818],[101.93854,2.669965],[101.92152,2.640895],[101.90381,2.6233],[101.89162,2.64421],[101.88955,2.664865],[101.89323,2.679655],[101.89346,2.718925],[101.88748,2.75335],[101.89185826797384,2.765],[101.755,2.765],[101.755,2.855],[101.925,2.855],[101.925,2.7898292807300056],[101.95142,2.80333]]]}}